[{"OBJECT_NAME":"WILDFIRE 8","OBJECT_ID":"2023-133M","EPOCH":"2026-03-09T12:22:22.023552","MEAN_MOTION":13.85412559,"ECCENTRICITY":0.00047302,"INCLINATION":80.9917,"RA_OF_ASC_NODE":102.7075,"ARG_OF_PERICENTER":283.6827,"MEAN_ANOMALY":76.3802,"EPHEMERIS_TYPE":0,"CLASSIFICATION_TYPE":"U","NORAD_CAT_ID":57768,"ELEMENT_SET_NO":999,"REV_AT_EPOCH":12723,"BSTAR":-0.00014989994,"MEAN_MOTION_DOT":-1.6e-6,"MEAN_MOTION_DDOT":0},{"OBJECT_NAME":"CZ-6A DEB","OBJECT_ID":"2024-140LS","EPOCH":"2026-03-09T14:49:13.286496","MEAN_MOTION":14.0970538,"ECCENTRICITY":0.012107,"INCLINATION":88.8149,"RA_OF_ASC_NODE":275.1938,"ARG_OF_PERICENTER":219.9551,"MEAN_ANOMALY":139.2679,"EPHEMERIS_TYPE":0,"CLASSIFICATION_TYPE":"U","NORAD_CAT_ID":60967,"ELEMENT_SET_NO":999,"REV_AT_EPOCH":7978,"BSTAR":0.0016661,"MEAN_MOTION_DOT":3.14e-5,"MEAN_MOTION_DDOT":0}]
